[{"OBJECT_NAME":"STARLINK-6249","OBJECT_ID":"2023-065AQ","EPOCH":"2026-03-09T22:00:01.999584","MEAN_MOTION":15.13259741,"ECCENTRICITY":0.00026279,"INCLINATION":43.0007,"RA_OF_ASC_NODE":221.7072,"ARG_OF_PERICENTER":261.9718,"MEAN_ANOMALY":105.155,"EPHEMERIS_TYPE":0,"CLASSIFICATION_TYPE":"U","NORAD_CAT_ID":56541,"ELEMENT_SET_NO":999,"REV_AT_EPOCH":572,"BSTAR":0.0064157351,"MEAN_MOTION_DOT":0.0011783,"MEAN_MOTION_DDOT":0},{"OBJECT_NAME":"YAOGAN-39 05B","OBJECT_ID":"2023-194B","EPOCH":"2026-03-09T22:41:30.344640","MEAN_MOTION":15.16655635,"ECCENTRICITY":0.00092836,"INCLINATION":34.9938,"RA_OF_ASC_NODE":339.811,"ARG_OF_PERICENTER":155.8155,"MEAN_ANOMALY":204.2995,"EPHEMERIS_TYPE":0,"CLASSIFICATION_TYPE":"U","NORAD_CAT_ID":58558,"ELEMENT_SET_NO":999,"REV_AT_EPOCH":12501,"BSTAR":0.00038892506,"MEAN_MOTION_DOT":7.768e-5,"MEAN_MOTION_DDOT":0}]
